IRIDIUM 144             
1 43249U 18030A   25075.61887698  .00000591  00000+0  20409-3 0  9998
2 43249  86.3947 121.7245 0002157  89.0049 271.1394 14.34221975364556
IRIDIUM 149             
1 43250U 18030B   25075.55545375  .00000193  00000+0  61727-4 0  9993
2 43250  86.3947 121.7234 0002100  93.7304 266.4132 14.34219251364562
IRIDIUM 157             
1 43251U 18030C   25075.57448431  .00000484  00000+0  16588-3 0  9998
2 43251  86.3955 121.7585 0002478 100.8985 259.2490 14.34213950364549
IRIDIUM 140             
1 43252U 18030D   25075.59352854  .00000635  00000+0  21970-3 0  9993
2 43252  86.3988 121.7584 0006667  46.2446 313.9300 14.34210911364603
IRIDIUM 145             
1 43253U 18030E   25075.58083651  .00000597  00000+0  20613-3 0  9999
2 43253  86.3948 121.7426 0001921  87.3530 272.7886 14.34218378364531
IRIDIUM 146             
1 43254U 18030F   25075.56179601  .00000524  00000+0  17994-3 0  9997
2 43254  86.3948 121.7645 0001978  87.3297 272.8126 14.34220340364548
IRIDIUM 148             
1 43255U 18030G   25075.59985333  .00000463  00000+0  15817-3 0  9992
2 43255  86.3950 121.7844 0002140  96.3791 263.7649 14.34214926364580
IRIDIUM 142             
1 43256U 18030H   25075.56814609  .00000593  00000+0  20461-3 0  9992
2 43256  86.3945 121.7034 0001760  91.2028 268.9369 14.34216353364548
